NORAD_CAT_ID,OBJECT_NAME,OBJECT_TYPE,EPOCH,MEAN_MOTION,ECCENTRICITY,INCLINATION,RA_OF_ASC_NODE,ARG_OF_PERICENTER,MEAN_ANOMALY,BSTAR,MEAN_MOTION_DOT,MEAN_MOTION_DDOT,TLE_LINE0,TLE_LINE1,TLE_LINE2,SEMIMAJOR_AXIS,PERIOD,APOGEE,PERIGEE,DECAYED
53436.0,STARLINK-4527,PAYLOAD,2023-09-10 11:03:12,15.08841148,0.0001608,53.218,234.4697,104.2901,255.8269,3.9922e-05,3.47e-06,0.0,0 STARLINK-4527,1 53436U 22097BA  23253.46056312  .00000347  00000-0  39922-4 0  9996,2 53436  53.2180 234.4697 0001608 104.2901 255.8269 15.08841148 61227,6917.877,95.437,540.854,538.629,0.0
53436.0,STARLINK-4527,PAYLOAD,2023-09-11 02:57:04,15.08839229,0.0001564,53.2182,231.4965,91.7182,268.399,8.3258e-05,1.037e-05,0.0,0 STARLINK-4527,1 53436U 22097BA  23254.12296568  .00001037  00000-0  83258-4 0  9997,2 53436  53.2182 231.4965 0001564  91.7182 268.3990 15.08839229 60840,6917.883,95.438,540.83,538.666,0.0
53436.0,STARLINK-4527,PAYLOAD,2023-09-11 10:53:59,15.08847218,0.0001543,53.2179,230.0095,94.1532,265.9636,0.00011892,1.605e-05,0.0,0 STARLINK-4527,1 53436U 22097BA  23254.45415972  .00001605  00000-0  11892-3 0  9990,2 53436  53.2179 230.0095 0001543  94.1532 265.9636 15.08847218 61374,6917.858,95.437,540.791,538.656,0.0
53436.0,STARLINK-4527,PAYLOAD,2023-09-12 07:34:00,15.08845341,0.000139,53.2167,226.143,90.951,269.1641,0.0001552,2.183e-05,0.0,0 STARLINK-4527,1 53436U 22097BA  23255.31528203  .00002183  00000-0  15520-3 0  9992,2 53436  53.2167 226.1430 0001390  90.9510 269.1641 15.08845341 61029,6917.864,95.437,540.691,538.767,0.0
53436.0,STARLINK-4527,PAYLOAD,2023-09-12 10:44:46,15.08846921,0.0001416,53.2167,225.5482,93.6535,266.4619,0.00017085,2.433e-05,0.0,0 STARLINK-4527,1 53436U 22097BA  23255.44776067  .00002433  00000-0  17085-3 0  9995,2 53436  53.2167 225.5482 0001416  93.6535 266.4619 15.08846921 61520,6917.859,95.437,540.704,538.745,0.0
53436.0,STARLINK-4527,PAYLOAD,2023-09-13 02:38:38,15.08844207,0.0001365,53.2171,222.5744,95.0002,265.1146,5.476e-05,5.84e-06,0.0,0 STARLINK-4527,1 53436U 22097BA  23256.11016519  .00000584  00000-0  54760-4 0  9996,2 53436  53.2171 222.5744 0001365  95.0002 265.1146 15.08844207 61145,6917.868,95.437,540.677,538.788,0.0
53436.0,STARLINK-4527,PAYLOAD,2023-09-13 07:24:47,15.08851385,0.0001653,53.2176,221.6787,118.0886,242.0273,0.00016131,2.281e-05,0.0,0 STARLINK-4527,1 53436U 22097BA  23256.30887891  .00002281  00000-0  16131-3 0  9991,2 53436  53.2176 221.6787 0001653 118.0886 242.0273 15.08851385 61659,6917.846,95.437,540.854,538.567,0.0
53436.0,STARLINK-4527,PAYLOAD,2023-09-13 15:21:43,15.08840003,0.0001418,53.2169,220.1981,85.4183,274.6971,4.6353e-05,4.5e-06,0.0,0 STARLINK-4527,1 53436U 22097BA  23256.64008629  .00000450  00000-0  46353-4 0  9998,2 53436  53.2169 220.1981 0001418  85.4183 274.6971 15.08840003 61704,6917.88,95.438,540.726,538.764,0.0
53436.0,STARLINK-4527,PAYLOAD,2023-09-14 02:29:25,15.08835888,0.0001548,53.2159,218.1133,106.6248,253.4914,2.5968e-05,1.25e-06,0.0,0 STARLINK-4527,1 53436U 22097BA  23257.10376844  .00000125  00000-0  25968-4 0  9995,2 53436  53.2159 218.1133 0001548 106.6248 253.4914 15.08835888 61292,6917.893,95.438,540.829,538.687,0.0
53436.0,STARLINK-4527,PAYLOAD,2023-09-14 04:04:48,15.08836974,0.0001587,53.217,217.8154,111.5599,248.5562,-1.2944e-05,-4.94e-06,0.0,0 STARLINK-4527,1 53436U 22097BA  23257.17000771 -.00000494  00000-0 -12944-4 0  9996,2 53436  53.2170 217.8154 0001587 111.5599 248.5562 15.08836974 61786,6917.89,95.438,540.853,538.657,0.0
53436.0,STARLINK-4527,PAYLOAD,2023-09-15 07:06:21,15.08850804,0.0001326,53.2166,212.7636,95.645,264.4693,0.00012406,1.688e-05,0.0,0 STARLINK-4527,1 53436U 22097BA  23258.29608368  .00001688  00000-0  12406-3 0  9992,2 53436  53.2166 212.7636 0001326  95.6450 264.4693 15.08850804 61475,6917.847,95.437,540.63,538.795,0.0
53436.0,STARLINK-4527,PAYLOAD,2023-09-16 02:10:59,15.08841658,0.0001425,53.217,209.1943,107.0581,253.0567,0.00020211,2.93e-05,0.0,0 STARLINK-4527,1 53436U 22097BA  23259.09096967  .00002930  00000-0  20211-3 0  9991,2 53436  53.2170 209.1943 0001425 107.0581 253.0567 15.08841658 61598,6917.875,95.437,540.726,538.755,0.0
53436.0,STARLINK-4527,PAYLOAD,2023-09-16 03:46:22,15.0884351,0.0001335,53.2165,208.8982,100.216,259.8983,0.00023586,3.468e-05,0.0,0 STARLINK-4527,1 53436U 22097BA  23259.15720979  .00003468  00000-0  23586-3 0  9990,2 53436  53.2165 208.8982 0001335 100.2160 259.8983 15.08843510 62089,6917.87,95.437,540.658,538.811,0.0
53436.0,STARLINK-4527,PAYLOAD,2023-09-17 02:01:46,15.08841486,0.0001291,53.217,204.7363,100.3876,259.7262,5.9417e-05,6.58e-06,0.0,0 STARLINK-4527,1 53436U 22097BA  23260.08457149  .00000658  00000-0  59417-4 0  9991,2 53436  53.2170 204.7363 0001291 100.3876 259.7262 15.08841486 61740,6917.876,95.437,540.634,538.848,0.0
53436.0,STARLINK-4527,PAYLOAD,2023-09-17 06:47:56,15.08849612,0.0001234,53.2171,203.8439,98.5177,261.5955,0.00014968,2.096e-05,0.0,0 STARLINK-4527,1 53436U 22097BA  23260.28328751  .00002096  00000-0  14968-3 0  9998,2 53436  53.2171 203.8439 0001234  98.5177 261.5955 15.08849612 62250,6917.851,95.437,540.57,538.862,0.0
53436.0,STARLINK-4527,PAYLOAD,2023-09-18 01:52:34,15.08842573,0.0001581,53.2176,200.2768,82.7253,277.3919,8.2244e-05,1.021e-05,0.0,0 STARLINK-4527,1 53436U 22097BA  23261.07817198  .00001021  00000-0  82244-4 0  9994,2 53436  53.2176 200.2768 0001581  82.7253 277.3919 15.08842573 61899,6917.873,95.437,540.831,538.644,0.0
53436.0,STARLINK-4527,PAYLOAD,2023-09-18 05:03:19,15.08851123,0.0001517,53.2179,199.6784,82.4033,277.7131,0.00017744,2.538e-05,0.0,0 STARLINK-4527,1 53436U 22097BA  23261.21064604  .00002538  00000-0  17744-3 0  9992,2 53436  53.2179 199.6784 0001517  82.4033 277.7131 15.08851123 61917,6917.846,95.437,540.761,538.662,0.0
53436.0,STARLINK-4527,PAYLOAD,2023-09-19 01:43:20,15.08848438,0.0001692,53.2182,195.8165,102.4208,257.6974,0.00015537,2.186e-05,0.0,0 STARLINK-4527,1 53436U 22097BA  23262.07176638  .00002186  00000-0  15537-3 0  9995,2 53436  53.2182 195.8165 0001692 102.4208 257.6974 15.08848438 62045,6917.855,95.437,540.89,538.549,0.0
53436.0,STARLINK-4527,PAYLOAD,2023-09-20 01:34:07,15.08848306,0.0001429,53.2161,191.3543,98.3666,261.7488,9.4702e-05,1.22e-05,0.0,0 STARLINK-4527,1 53436U 22097BA  23263.06536228  .00001220  00000-0  94702-4 0  9990,2 53436  53.2161 191.3543 0001429  98.3666 261.7488 15.08848306 62198,6917.855,95.437,540.709,538.731,0.0
53436.0,STARLINK-4527,PAYLOAD,2023-09-20 12:41:49,15.0883517,0.000137,53.2179,189.2694,101.9752,258.1394,-5.0924e-05,-1.098e-05,0.0,0 STARLINK-4527,1 53436U 22097BA  23263.52904813 -.00001098  00000-0 -50924-4 0  9993,2 53436  53.2179 189.2694 0001370 101.9752 258.1394 15.08835170 62744,6917.895,95.438,540.708,538.812,0.0
53436.0,STARLINK-4527,PAYLOAD,2023-09-21 01:24:55,15.08826061,0.0001448,53.2162,186.8925,90.112,270.0038,-0.00024507,-4.185e-05,0.0,0 STARLINK-4527,1 53436U 22097BA  23264.05897905 -.00004185  00000-0 -24507-3 0  9992,2 53436  53.2162 186.8925 0001448  90.1120 270.0038 15.08826061 62343,6917.923,95.438,540.79,538.786,0.0
53436.0,STARLINK-4527,PAYLOAD,2023-09-21 04:35:42,15.08822484,0.0001491,53.216,186.2969,95.4025,264.7137,-0.0001964,-3.411e-05,0.0,0 STARLINK-4527,1 53436U 22097BA  23264.19145952 -.00003411  00000-0 -19640-3 0  9998,2 53436  53.2160 186.2969 0001491  95.4025 264.7137 15.08822484 62843,6917.934,95.439,540.83,538.767,0.0
53436.0,STARLINK-4527,PAYLOAD,2023-09-21 22:04:56,15.08845457,0.0001419,53.2171,183.0248,111.6883,248.426,0.00031952,4.802e-05,0.0,0 STARLINK-4527,1 53436U 22097BA  23264.92009568  .00004802  00000-0  31952-3 0  9994,2 53436  53.2171 183.0248 0001419 111.6883 248.4260 15.08845457 62956,6917.864,95.437,540.71,538.747,0.0
53436.0,STARLINK-4527,PAYLOAD,2023-09-22 01:15:42,15.08854338,0.0001336,53.2164,182.4321,93.7666,266.3479,0.0007436,0.00011571,0.0,0 STARLINK-4527,1 53436U 22097BA  23265.05257641  .00011571  00000-0  74360-3 0  9997,2 53436  53.2164 182.4321 0001336  93.7666 266.3479 15.08854338 62498,6917.837,95.437,540.626,538.777,0.0
53436.0,STARLINK-4527,PAYLOAD,2023-09-22 04:26:28,15.08862568,0.0001404,53.2163,181.8372,91.2719,268.8434,0.001134,0.00017817,0.0,0 STARLINK-4527,1 53436U 22097BA  23265.18505618  .00017817  00000-0  11340-2 0  9998,2 53436  53.2163 181.8372 0001404  91.2719 268.8434 15.08862568 62991,6917.811,95.436,540.648,538.705,0.0
53436.0,STARLINK-4527,PAYLOAD,2023-09-22 21:55:43,15.08861091,0.0001275,53.216,178.5663,82.9005,277.2132,0.00074851,0.00011651,0.0,0 STARLINK-4527,1 53436U 22097BA  23265.91369449  .00011651  00000-0  74851-3 0  9996,2 53436  53.2160 178.5663 0001275  82.9005 277.2132 15.08861091 63108,6917.816,95.436,540.563,538.799,0.0
53436.0,STARLINK-4527,PAYLOAD,2023-09-23 01:06:29,15.08859493,0.0001176,53.2162,177.9726,71.1618,288.9502,0.0015757,0.00024892,0.0,0 STARLINK-4527,1 53436U 22097BA  23266.04617500  .00024892  00000-0  15757-2 0  9995,2 53436  53.2162 177.9726 0001176  71.1618 288.9502 15.08859493 62644,6917.821,95.436,540.499,538.872,0.0
53436.0,STARLINK-4527,PAYLOAD,2023-09-23 04:17:15,15.08863345,0.0001256,53.2162,177.3777,71.3435,288.7694,0.0014089,0.0002222,0.0,0 STARLINK-4527,1 53436U 22097BA  23266.17865288  .00022220  00000-0  14089-2 0  9997,2 53436  53.2162 177.3777 0001256  71.3435 288.7694 15.08863345 63149,6917.809,95.436,540.543,538.805,0.0
53436.0,STARLINK-4527,PAYLOAD,2023-09-23 18:35:44,15.0883649,0.0001595,53.2162,174.7008,64.6379,295.4779,0.0014201,0.00022383,0.0,0 STARLINK-4527,1 53436U 22097BA  23266.77481918  .00022383  00000-0  14201-2 0  9993,2 53436  53.2162 174.7008 0001595  64.6379 295.4779 15.08836490 62751,6917.891,95.438,540.86,538.653,0.0
53436.0,STARLINK-4527,PAYLOAD,2023-09-24 02:32:39,15.08856875,0.0001209,53.2164,173.2149,94.4035,265.7096,0.0016808,0.00026576,0.0,0 STARLINK-4527,1 53436U 22097BA  23267.10601512  .00026576  00000-0  16808-2 0  9998,2 53436  53.2164 173.2149 0001209  94.4035 265.7096 15.08856875 63285,6917.829,95.436,540.53,538.857,0.0
